MINOR PLANET CENTER ORBIT DATABASE (MPCORB)

This file contains published orbital elements for all numbered and unnumbered
multi-opposition minor planets for which it is possible to make reasonable
predictions.  It also includes published elements for recent one-opposition
minor planets and is intended to be complete through the last issued Daily
Orbit Update MPEC.  As such it is intended to be of interest primarily
to astrometric observers.

   Software programs may include this datafile amongst their datasets, as
   long as this header is included (it is acceptable if it is contained
   in a file separate from the actual data) and that proper attribution
   to the Minor Planet Center is given.  Credit to the individual orbit
   computers is implicit by the inclusion of a reference and the name of
   the orbit computer on each orbit record.  Information on how to obtain
   updated copies of the datafile must also be included.

   The work of the individual astrometric observers, without whom none of
   the work of the Minor Planet Center would be possible, is gratefully
   acknowledged.  Credit to the individual observers is implicit by the
   inclusion of the reference to the publication of their observations in
   all data sets distributed by the Minor Planet Center.

New versions of this file, updated on a daily basis, will be available at:

          https://www.minorplanetcenter.org/iau/MPCORB/MPCORB.DAT

The elements contained within MPCORB are divided into three sections,
separated by blank lines.  The first section contains the numbered objects,
the second section contains the unnumbered objects with perturbed orbit
solutions and the third contains the recent 1-opposition objects with
unperturbed orbit solutions.  Each object's elements are stored on a single
line, the format of which is described at:

          http://www.minorplanetcenter.org/iau/info/MPOrbitFormat.html

If you find a problem with any data herein, please contact mpc@cfa.harvard.edu.

A brief header is given below:

Des'n     H     G   Epoch     M        Peri.      Node       Incl.       e            n           a        Reference #Obs #Opp    Arc    rms  Perts   Computer

----------------------------------------------------------------------------------------------------------------------------------------------------------------
00001    3.34  0.15 K2555 188.70269   73.27343   80.25221   10.58780  0.0794013  0.21424651   2.7660512  0 E2024-V47  7330 125 1801-2024 0.80 M-v 30k MPCLINUX   4000      (1) Ceres              20241101
00002    4.11  0.15 K2555 168.79870  310.91037  172.89530   34.92402  0.2305404  0.21376611   2.7701937  0 E2024-V16  8964 123 1804-2024 0.75 M-c 28k Pan        4000      (2) Pallas             20240927
00003    5.18  0.15 K2555 172.45499  247.85972  169.82994   12.98651  0.2559472  0.22582594   2.6706696  0 E2024-V16  7523 117 1804-2024 0.83 M-v 3Ek Pan        4000      (3) Juno               20240607
00004    3.25  0.15 K2555 332.45069  151.58335  103.70297    7.14394  0.0901071  0.27161293   2.3613975  0 E2024-V16  7647 111 1821-2024 0.82 M-p 18k Pan        4000      (4) Vesta              20240306
00005    6.99  0.15 K2555  86.24723  359.31775  141.45353    5.35887  0.1874407  0.23828278   2.5767618  0 E2025-CG9  3184  90 1845-2025 0.86 M-v 3Ek MPCLINUX   4000      (5) Astraea            20250213
00006    5.61  0.15 K2555 300.41267  239.67015  138.61440   14.73542  0.2023356  0.26085569   2.4258792  0 E2024-V16  5995 104 1848-2024 0.75 M-v 3Ek Pan        4007      (6) Hebe               20240817
00007    5.67  0.15 K2555   8.23526  145.52919  259.49837    5.51956  0.2299781  0.26736877   2.3863214  0 E2025-B29  5368  91 1848-2025 0.82 M-v 3Ek MPCLINUX   0000      (7) Iris               20250105
00008    6.62  0.15 K2555 138.54190  285.42156  110.84544    5.89030  0.1564763  0.30182958   2.2010413  0 E2025-C09  2720  95 1847-2025 0.84 M-v 3Ek MPCLINUX   0000      (8) Flora              20250201
00009    6.34  0.15 K2555 145.77823    5.85523   68.86994    5.57803  0.1226466  0.26735941   2.3863770  0 MPO840811  3130  86 1822-2024 0.73 M-v 3Ek MPCLINUX   0000      (9) Metis              20240603
00010    5.65  0.15 K2555 181.27891  312.70565  283.12779    3.83243  0.1096266  0.17683012   3.1436334  0 E2025-B29  4167 100 1849-2025 0.78 M-v 3Ek MPCLINUX   0000     (10) Hygiea             20250118
00011    6.73  0.15 K2555 122.46023  196.37206  125.47457    4.63342  0.0997989  0.25633500   2.4543177  0 E2025-CF6  9665 106 1850-2025 0.60 M-v 3Ek MPCLINUX   0000     (11) Parthenope         20250209
00012    7.29  0.15 K2555  21.64688   69.53912  235.35314    8.37405  0.2200210  0.27642190   2.3339296  0 MPO887287  3532  83 1850-2024 0.85 M-v 3Ek MPCLINUX   0000     (12) Victoria           20240910
00013    6.91  0.15 K2555 353.28831   79.09382   43.18830   16.52551  0.0849877  0.23823575   2.5771009  0 E2025-CF6  3143  76 1850-2025 0.84 M-v 3Ek MPCLINUX   0000     (13) Egeria             20250208
00014    6.54  0.15 K2555 325.60832   98.22479   86.01070    9.12960  0.1627056  0.23672559   2.5880495  0 E2025-B02  2983  85 1851-2025 0.87 M-v 3Ek MPCLINUX   0000     (14) Irene              20250116
00015    5.42  0.15 K2555  67.71314   98.63439  292.87955   11.76051  0.1877168  0.22934920   2.6432479  0 E2025-B94  4503  86 1851-2025 0.63 M-v 3Ek MPCLINUX   0000     (15) Eunomia            20250118
00016    6.20  0.15 K2555   1.28217  229.63980  150.01955    3.09735  0.1340603  0.19731331   2.9221228  0 MPO887287  7638  95 1852-2024 0.56 M-v 3Ek MPCLINUX   0000     (16) Psyche             20241211
00017    7.92  0.15 K2555 142.11870  135.78158  125.52279    5.59242  0.1319544  0.25371299   2.4711982  0 E2025-CH1 10443  97 1852-2025 0.55 M-v 3Ek MPCLINUX   0000     (17) Thetis             20250214
00018    6.35  0.15 K2555 170.57139  228.05742  150.33419   10.13133  0.2181122  0.28343612   2.2952637  0 MPO887287  5675  86 1852-2025 0.77 M-v 3Ek MPCLINUX   0000     (18) Melpomene          20250112
00019    7.49  0.15 K2555  44.72456  182.64799  211.03056    1.57334  0.1578698  0.25812734   2.4429432  0 E2025-DG3  8676  97 1852-2025 0.58 M-v 3Ek MPCLINUX   0000     (19) Fortuna            20250224
00020    6.54  0.15 K2555 337.16976  257.33743  205.97787    0.70931  0.1438882  0.26364274   2.4087525  0 E2025-DG3  9348  94 1856-2025 0.48 M-v 3Ek MPCLINUX   0000     (20) Massalia           20250224
00021    7.50  0.15 K2555 194.85007  249.97765   80.83700    3.06457  0.1647994  0.25957595   2.4338459  0 E2025-D28  5788  81 1866-2025 0.66 M-v 3Ek MPCLINUX   0000     (21) Lutetia            20250219
00022    6.80  0.15 K2555 271.06605  358.12033   65.97105   13.70152  0.0989148  0.19854208   2.9100537  0 E2024-VG3 11576  87 1854-2024 0.45 M-v 3Ek MPCLINUX   0000     (22) Kalliope           20241111
00023    7.16  0.15 K2555 123.98241   61.61349   66.49104   10.10886  0.2311485  0.23121936   2.6289758  0 E2025-D42  3582  72 1856-2025 0.74 M-v 3Ek MPCLINUX   0000     (23) Thalia             20250219
00024    7.24  0.15 K2555  21.45734  109.03457   36.38938    0.73676  0.1152743  0.17690556   3.1427396  0 E2025-C50  5014  95 1853-2025 0.80 M-v 3Ek MPCLINUX   0000     (24) Themis             20250204
00025    7.87  0.15 K2555  36.20664   90.19895  214.08948   21.60849  0.2541175  0.26507959   2.4000402  0 E2024-S84  5712  74 1860-2024 0.69 M-v 3Ek MPCLINUX   0000     (25) Phocaea            20240925
00026    7.51  0.15 K2555 244.35056  195.72875   45.70462    3.55458  0.0885165  0.22764764   2.6564029  0 E2025-DG3  3520  87 1861-2025 0.82 M-v 3Ek MPCLINUX   0000     (26) Proserpina         20250224
00027    7.04  0.15 K2555 218.18563  356.51896   94.76730    1.58333  0.1715064  0.27402255   2.3475338  0 E2024-TF3  3032  78 1853-2024 0.87 M-v 3Ek MPCLINUX   0000     (27) Euterpe            20241003
00028    7.24  0.15 K2555  22.90037  343.41947  144.15253    9.42342  0.1490094  0.21296879   2.7771036  0 E2025-D07  3555 106 1856-2025 0.86 M-v 3Ek MPCLINUX   0000     (28) Bellona            20250217
00029    5.97  0.15 K2555  96.82761   61.88223  356.25570    6.07775  0.0734638  0.24148680   2.5539190  0 E2025-D07  2442  99 1855-2025 0.88 M-v 3Ek MPCLINUX   0000     (29) Amphitrite         20250217
00030    7.59  0.15 K2555 265.41005   87.13745  307.39689    2.09359  0.1268059  0.27082257   2.3659895  0 MPO840811  3893  81 1860-2024 0.77 M-v 3Ek MPCLINUX   0000     (30) Urania             20240711
00031    6.84  0.15 K2555 112.87325   61.92663   30.80052   26.31587  0.2159829  0.17536866   3.1610744  0 E2025-DE5  3063  66 1860-2025 0.84 M-v 3Ek MPCLINUX   0000     (31) Euphrosyne         20250223
00032    7.77  0.15 K2555 194.41809  338.06854  220.36086    5.52229  0.0816193  0.23689855   2.5867896  0 E2025-B94  7786  77 1864-2025 0.52 M-v 3Ek MPCLINUX   0000     (32) Pomona             20250121
00033    8.49  0.15 K2555  66.64571  338.75873    8.36128    1.85104  0.3322897  0.20215399   2.8752868  0 E2025-DG3  4834  75 1856-2025 0.76 M-v 3Ek MPCLINUX   0000     (33) Polyhymnia         20250223
00034    8.77  0.15 K2555 260.14086  329.71351  184.32376    5.49726  0.1068261  0.22385245   2.6863431  0 E2025-C09 10099  73 1864-2025 0.55 M-v 3Ek MPCLINUX   0000     (34) Circe              20250201
00035    8.69  0.15 K2555 271.58404  215.14200  352.99226    7.86054  0.2177678  0.18886022   3.0086781  0 E2025-DG3  6539  72 1860-2025 0.69 M-v 3Ek MPCLINUX   0000     (35) Leukothea          20250223
00036    8.59  0.15 K2555  56.17174   47.79748  358.16565   18.37277  0.3063778  0.21669536   2.7451725  0 E2025-DG3  3503  58 1866-2025 0.77 M-v 3Ek MPCLINUX   0000     (36) Atalante           20250224
00037    7.37  0.15 K2555 127.03433   62.26307    7.24178    3.06800  0.1748496  0.22942801   2.6426425  0 E2025-DG3  3522  94 1855-2025 0.83 M-v 3Ek MPCLINUX   0000     (37) Fides              20250224
